[{"OBJECT_NAME":"OBJECT E","OBJECT_ID":"2022-023E","EPOCH":"2026-03-09T23:07:18.009696","MEAN_MOTION":13.56268386,"ECCENTRICITY":0.01511306,"INCLINATION":63.4608,"RA_OF_ASC_NODE":212.7399,"ARG_OF_PERICENTER":348.7592,"MEAN_ANOMALY":11.0076,"EPHEMERIS_TYPE":0,"CLASSIFICATION_TYPE":"U","NORAD_CAT_ID":51950,"ELEMENT_SET_NO":999,"REV_AT_EPOCH":20857,"BSTAR":0.00011607077,"MEAN_MOTION_DOT":-5.0e-8,"MEAN_MOTION_DDOT":0},{"OBJECT_NAME":"THOR ABLESTAR DEB","OBJECT_ID":"1961-015JZ","EPOCH":"2026-03-09T01:35:28.060800","MEAN_MOTION":13.84710985,"ECCENTRICITY":0.01356304,"INCLINATION":65.6394,"RA_OF_ASC_NODE":287.3848,"ARG_OF_PERICENTER":13.4839,"MEAN_ANOMALY":346.9793,"EPHEMERIS_TYPE":0,"CLASSIFICATION_TYPE":"U","NORAD_CAT_ID":5785,"ELEMENT_SET_NO":999,"REV_AT_EPOCH":27215,"BSTAR":0.00054907228,"MEAN_MOTION_DOT":5.8e-6,"MEAN_MOTION_DDOT":0}]
